IRIDIUM 39              
1 25042U 97069D   25291.16442662  .00000829  00000+0  21140-3 0  9993
2 25042  86.3945 158.4624 0015623 254.7996 105.1481 14.49391397466779
IRIDIUM 38              
1 25043U 97069E   25291.18120999  .00000625  00000+0  19924-3 0  9993
2 25043  86.4023 181.4580 0003980  70.3434 289.8193 14.38240973463630
IRIDIUM 42              
1 25077U 97077A   25291.26904004  .00000561  00000+0  18484-3 0  9994
2 25077  86.4031 187.7346 0002957  81.6421 278.5111 14.36468436458867
IRIDIUM 44              
1 25078U 97077B   25291.16906065  .00000594  00000+0  18114-3 0  9999
2 25078  86.4011 169.3996 0002584  39.4572 320.6815 14.40362462461408
IRIDIUM 45              
1 25104U 97082A   25291.19011629  .00033606  00000+0  10547-2 0  9992
2 25104  86.3599 347.9682 0104089 228.1776 131.0550 15.27642834470781
IRIDIUM 24              
1 25105U 97082B   25291.26072751  .00000777  00000+0  22965-3 0  9995
2 25105  86.3952  28.0749 0012536  40.3278 319.8850 14.42247276460956
IRIDIUM 51              
1 25262U 98018A   25291.21848214  .00079121  00000+0  12032-2 0  9991
2 25262  86.3827 354.4845 0069107 133.7762 226.9246 15.51475229466017
IRIDIUM 57              
1 25273U 98019B   25291.16659517  .00000604  00000+0  20131-3 0  9994
2 25273  86.3906  93.7035 0002180  87.1920 272.9526 14.35983933442436
